{
    "links": {
        "self": "http://www.neowsapp.com/rest/v1/neo/3476130?api_key=iIulBulltgU6a56xZRHN4H3l9WmuAYTsLGpBGhQ2"
    },
    "id": "3476130",
    "neo_reference_id": "3476130",
    "name": "(2009 VQ25)",
    "designation": "2009 VQ25",
    "nasa_jpl_url": "http://ssd.jpl.nasa.gov/sbdb.cgi?sstr=3476130",
    "absolute_magnitude_h": 18.6,
    "estimated_diameter": {
        "kilometers": {
            "estimated_diameter_min": 0.5064714588,
            "estimated_diameter_max": 1.1325046106
        },
        "meters": {
            "estimated_diameter_min": 506.4714588346,
            "estimated_diameter_max": 1132.5046106177
        },
        "miles": {
            "estimated_diameter_min": 0.3147066768,
            "estimated_diameter_max": 0.7037055224
        },
        "feet": {
            "estimated_diameter_min": 1661.651821003,
            "estimated_diameter_max": 3715.566426699
        }
    },
    "is_potentially_hazardous_asteroid": false,
    "close_approach_data": [
        {
            "close_approach_date": "2009-10-15",
            "close_approach_date_full": "2009-Oct-15 23:00",
            "epoch_date_close_approach": 1255647600000,
            "relative_velocity": {
                "kilometers_per_second": "37.6055971613",
                "kilometers_per_hour": "135380.1497807336",
                "miles_per_hour": "84119.9602901453"
            },
            "miss_distance": {
                "astronomical": "0.2383649254",
                "lunar": "92.7239559806",
                "kilometers": "35658885.122548898",
                "miles": "22157403.7626868724"
            },
            "orbiting_body": "Earth"
        }
    ],
    "orbital_data": {
        "orbit_id": "6",
        "orbit_determination_date": "2017-04-06 08:59:14",
        "first_observation_date": "2009-11-09",
        "last_observation_date": "2009-11-12",
        "data_arc_in_days": 3,
        "observations_used": 22,
        "orbit_uncertainty": "9",
        "minimum_orbit_intersection": ".184875",
        "jupiter_tisserand_invariant": "3.506",
        "epoch_osculation": "2455145.5",
        "eccentricity": ".5242031447459258",
        "semi_major_axis": "1.707965185969119",
        "inclination": "61.89314902927048",
        "ascending_node_longitude": "13.89941335984306",
        "orbital_period": "815.2990719662537",
        "perihelion_distance": ".812644464367547",
        "perihelion_argument": "6.167265317072925",
        "aphelion_distance": "2.603285907570692",
        "perihelion_time": "2455125.431728770692",
        "mean_anomaly": "8.861260721329405",
        "mean_motion": ".4415557583449584",
        "equinox": "J2000",
        "orbit_class": {
            "orbit_class_type": "APO",
            "orbit_class_description": "Near-Earth asteroid orbits which cross the Earth’s orbit similar to that of 1862 Apollo",
            "orbit_class_range": "a (semi-major axis) > 1.0 AU; q (perihelion) < 1.017 AU"
        }
    },
    "is_sentry_object": false
}